OBJECT_NAME,OBJECT_ID,EPOCH,MEAN_MOTION,ECCENTRICITY,INCLINATION,RA_OF_ASC_NODE,ARG_OF_PERICENTER,MEAN_ANOMALY,EPHEMERIS_TYPE,CLASSIFICATION_TYPE,NORAD_CAT_ID,ELEMENT_SET_NO,REV_AT_EPOCH,BSTAR,MEAN_MOTION_DOT,MEAN_MOTION_DDOT
VANGUARD-1,1958-002B,2026-01-01T00:00:00.000000,10.8480245,0.1846600,34.2476,99.4290,156.5260,210.2750,0,U,5,999,1,2.8098e-5,0,0
ALPHA5-SAMPLE,2010-001A,2026-01-01T00:00:00.000000,15.5,0.0001,51.6400,100.0000,0.0000,0.0000,0,U,T0001,999,1,0,0,0
EXTENDED-9D,2026-114A,2026-01-01T00:00:00.000000,15.5,0.0001137,53.1600,100.0000,0.0000,0.0000,0,U,799500766,999,1,0,0,0
